{
  "norad_id": 59858,
  "name": "STARLINK-31654",
  "history": [
    {
      "epoch": "2026-05-04T14:32:03.346656Z",
      "apogee_km": 483.86398046329396,
      "perigee_km": 482.2708088028594,
      "latitude_deg": 1.9380876104874494e-05,
      "longitude_deg": -125.72134946835858,
      "height_km": 482.881368291119,
      "semi_major_axis_km": 6861.204394633076,
      "eccentricity": 0.0001161,
      "inclination_deg": 43.0007,
      "raan_deg": 314.7851,
      "arg_perigee_deg": 267.3087,
      "mean_anomaly_deg": 92.7632,
      "mean_motion_rev_day": 15.27573889
    },
    {
      "epoch": "2026-05-05T12:30:15.093792Z",
      "apogee_km": 484.0233623046597,
      "perigee_km": 482.106342507097,
      "latitude_deg": 3.8184115853126265e-05,
      "longitude_deg": -101.3492521798563,
      "height_km": 482.9482460509262,
      "semi_major_axis_km": 6861.201852405878,
      "eccentricity": 0.0001397,
      "inclination_deg": 42.9941,
      "raan_deg": 309.6084,
      "arg_perigee_deg": 263.5679,
      "mean_anomaly_deg": 96.5014,
      "mean_motion_rev_day": 15.27574738
    },
    {
      "epoch": "2026-05-06T12:02:36.203424Z",
      "apogee_km": 483.96420646452134,
      "perigee_km": 482.17452939551094,
      "latitude_deg": -1.9254499329560937e-05,
      "longitude_deg": -100.93559447842591,
      "height_km": 482.8816939197381,
      "semi_major_axis_km": 6861.206367930015,
      "eccentricity": 0.00013042,
      "inclination_deg": 43.0008,
      "raan_deg": 304.0768,
      "arg_perigee_deg": 267.7188,
      "mean_anomaly_deg": 92.3514,
      "mean_motion_rev_day": 15.2757323
    },
    {
      "epoch": "2026-05-07T17:51:34.299072Z",
      "apogee_km": 483.9850574853972,
      "perigee_km": 482.12704640692937,
      "latitude_deg": -1.3738919113292807e-05,
      "longitude_deg": 163.58433646843912,
      "height_km": 482.9693827487941,
      "semi_major_axis_km": 6861.193051946163,
      "eccentricity": 0.0001354,
      "inclination_deg": 43.0036,
      "raan_deg": 297.0633,
      "arg_perigee_deg": 261.5636,
      "mean_anomaly_deg": 98.5062,
      "mean_motion_rev_day": 15.27577677
    },
    {
      "epoch": "2026-05-08T17:23:51.969984Z",
      "apogee_km": 483.92715463462446,
      "perigee_km": 481.95390873651195,
      "latitude_deg": 3.2544726999148533e-06,
      "longitude_deg": 164.00574161500444,
      "height_km": 482.746934078561,
      "semi_major_axis_km": 6861.077531685568,
      "eccentricity": 0.0001438,
      "inclination_deg": 43.003,
      "raan_deg": 291.525,
      "arg_perigee_deg": 268.2957,
      "mean_anomaly_deg": 91.773,
      "mean_motion_rev_day": 15.27616257
    },
    {
      "epoch": "2026-05-09T16:56:16.712736Z",
      "apogee_km": 484.0957290151482,
      "perigee_km": 482.11283028532944,
      "latitude_deg": -3.277632043981354e-06,
      "longitude_deg": 164.39507576394107,
      "height_km": 482.8873307020773,
      "semi_major_axis_km": 6861.2412796502385,
      "eccentricity": 0.0001445,
      "inclination_deg": 43.0025,
      "raan_deg": 285.9842,
      "arg_perigee_deg": 269.6514,
      "mean_anomaly_deg": 90.4172,
      "mean_motion_rev_day": 15.27561571
    },
    {
      "epoch": "2026-05-10T19:36:57.031200Z",
      "apogee_km": 484.2588474127624,
      "perigee_km": 481.87526512361455,
      "latitude_deg": 5.76150039450255e-05,
      "longitude_deg": 116.85562465164197,
      "height_km": 482.69490467820316,
      "semi_major_axis_km": 6861.204056268189,
      "eccentricity": 0.0001737,
      "inclination_deg": 43.0042,
      "raan_deg": 279.7083,
      "arg_perigee_deg": 277.211,
      "mean_anomaly_deg": 82.8545,
      "mean_motion_rev_day": 15.27574002
    }
  ]
}